{
  "type": "FeatureCollection",
  "features": [
    {
      "type": "Feature",
      "properties": {
        "norad_id": 40362,
        "name": "YAOGAN-26",
        "group": "resource",
        "lat": 69.45575898529499,
        "lon": -28.8941416868758,
        "alt_km": 438.6077606692088,
        "timestamp": "2025-12-15T20:48:53.542359+00:00",
        "meta_object_name": "YAOGAN-26",
        "meta_object_id": "2014-088A",
        "meta_epoch": "2025-12-14T22:40:06.426912",
        "meta_mean_motion": 15.3938964,
        "meta_eccentricity": 0.00058769,
        "meta_inclination": 97.0645,
        "meta_ra_of_asc_node": 349.54,
        "meta_arg_of_pericenter": 22.8619,
        "meta_mean_anomaly": 337.2888,
        "meta_ephemeris_type": 0,
        "meta_classification_type": "U",
        "meta_norad_cat_id": 40362,
        "meta_element_set_no": 999,
        "meta_rev_at_epoch": 60928,
        "meta_bstar": 0.00040815838,
        "meta_mean_motion_dot": 0.00015906,
        "meta_mean_motion_ddot": 0,
        "tle_line1": "1 40362U 14088A   25348.94451883  .00015906  00000+0  40816-3 0  9992",
        "tle_line2": "2 40362  97.0645 349.5400 0005876  22.8619 337.2888 15.39389640609289"
      },
      "geometry": {
        "type": "Point",
        "coordinates": [
          -28.8941416868758,
          69.45575898529499
        ]
      }
    },
    {
      "type": "Feature",
      "properties": {
        "norad_id": 40376,
        "name": "SMAP",
        "group": "resource",
        "lat": -5.1597928110425055,
        "lon": 173.80649991356256,
        "alt_km": 686.1412674970616,
        "timestamp": "2025-12-15T20:48:53.542369+00:00",
        "meta_object_name": "SMAP",
        "meta_object_id": "2015-003A",
        "meta_epoch": "2025-12-14T22:38:17.245824",
        "meta_mean_motion": 14.63347622,
        "meta_eccentricity": 0.00012113,
        "meta_inclination": 98.1291,
        "meta_ra_of_asc_node": 353.6353,
        "meta_arg_of_pericenter": 89.9122,
        "meta_mean_anomaly": 270.2219,
        "meta_ephemeris_type": 0,
        "meta_classification_type": "U",
        "meta_norad_cat_id": 40376,
        "meta_element_set_no": 999,
        "meta_rev_at_epoch": 58067,
        "meta_bstar": 0.00012498172,
        "meta_mean_motion_dot": 5.99e-06,
        "meta_mean_motion_ddot": 0,
        "tle_line1": "1 40376U 15003A   25348.94325516  .00000599  00000+0  12498-3 0  9995",
        "tle_line2": "2 40376  98.1291 353.6353 0001211  89.9122 270.2219 14.63347622580673"
      },
      "geometry": {
        "type": "Point",
        "coordinates": [
          173.80649991356256,
          -5.1597928110425055
        ]
      }
    },
    {
      "type": "Feature",
      "properties": {
        "norad_id": 40536,
        "name": "KOMPSAT-3A",
        "group": "resource",
        "lat": 62.41481667568178,
        "lon": -50.57839356325407,
        "alt_km": 426.0992493875947,
        "timestamp": "2025-12-15T20:48:53.542379+00:00",
        "meta_object_name": "KOMPSAT-3A",
        "meta_object_id": "2015-014A",
        "meta_epoch": "2025-12-14T22:45:57.820032",
        "meta_mean_motion": 15.44033472,
        "meta_eccentricity": 0.00051125,
        "meta_inclination": 97.6784,
        "meta_ra_of_asc_node": 323.4174,
        "meta_arg_of_pericenter": 121.9169,
        "meta_mean_anomaly": 238.2576,
        "meta_ephemeris_type": 0,
        "meta_classification_type": "U",
        "meta_norad_cat_id": 40536,
        "meta_element_set_no": 999,
        "meta_rev_at_epoch": 59329,
        "meta_bstar": 0.00031231251,
        "meta_mean_motion_dot": 0.00014171,
        "meta_mean_motion_ddot": 0,
        "tle_line1": "1 40536U 15014A   25348.94858588  .00014171  00000+0  31231-3 0  9992",
        "tle_line2": "2 40536  97.6784 323.4174 0005112 121.9169 238.2576 15.44033472593297"
      },
      "geometry": {
        "type": "Point",
        "coordinates": [
          -50.57839356325407,
          62.41481667568178
        ]
      }
    },
    {
      "type": "Feature",
      "properties": {
        "norad_id": 40697,
        "name": "SENTINEL-2A",
        "group": "resource",
        "lat": 46.96641949534253,
        "lon": 53.06081513604839,
        "alt_km": 784.2158313924892,
        "timestamp": "2025-12-15T20:48:53.542389+00:00",
        "meta_object_name": "SENTINEL-2A",
        "meta_object_id": "2015-028A",
        "meta_epoch": "2025-12-14T22:46:28.795296",
        "meta_mean_motion": 14.30814626,
        "meta_eccentricity": 0.00010786,
        "meta_inclination": 98.5688,
        "meta_ra_of_asc_node": 61.4496,
        "meta_arg_of_pericenter": 87.3474,
        "meta_mean_anomaly": 272.7832,
        "meta_ephemeris_type": 0,
        "meta_classification_type": "U",
        "meta_norad_cat_id": 40697,
        "meta_element_set_no": 999,
        "meta_rev_at_epoch": 54738,
        "meta_bstar": 0.0001208809,
        "meta_mean_motion_dot": 2.73e-06,
        "meta_mean_motion_ddot": 0,
        "tle_line1": "1 40697U 15028A   25348.94894439  .00000273  00000+0  12088-3 0  9997",
        "tle_line2": "2 40697  98.5688  61.4496 0001078  87.3474 272.7832 14.30814626547384"
      },
      "geometry": {
        "type": "Point",
        "coordinates": [
          53.06081513604839,
          46.96641949534253
        ]
      }
    },
    {
      "type": "Feature",
      "properties": {
        "norad_id": 40701,
        "name": "GAOFEN-8",
        "group": "resource",
        "lat": -45.900221646220636,
        "lon": -19.856176741918386,
        "alt_km": 458.17421495321196,
        "timestamp": "2025-12-15T20:48:53.542399+00:00",
        "meta_object_name": "GAOFEN-8",
        "meta_object_id": "2015-030A",
        "meta_epoch": "2025-12-14T23:32:39.970752",
        "meta_mean_motion": 15.38633353,
        "meta_eccentricity": 0.00116049,
        "meta_inclination": 97.6907,
        "meta_ra_of_asc_node": 167.2306,
        "meta_arg_of_pericenter": 130.0825,
        "meta_mean_anomaly": 230.1439,
        "meta_ephemeris_type": 0,
        "meta_classification_type": "U",
        "meta_norad_cat_id": 40701,
        "meta_element_set_no": 999,
        "meta_rev_at_epoch": 58305,
        "meta_bstar": 0.00041824905,
        "meta_mean_motion_dot": 0.0001592,
        "meta_mean_motion_ddot": 0,
        "tle_line1": "1 40701U 15030A   25348.98101818  .00015920  00000+0  41825-3 0  9998",
        "tle_line2": "2 40701  97.6907 167.2306 0011604 130.0825 230.1439 15.38633353583051"
      },
      "geometry": {
        "type": "Point",
        "coordinates": [
          -19.856176741918386,
          -45.900221646220636
        ]
      }
    },
    {
      "type": "Feature",
      "properties": {
        "norad_id": 40718,
        "name": "CARBONITE 1 (CBNT-1)",
        "group": "resource",
        "lat": -68.53936791771581,
        "lon": -29.19343098715719,
        "alt_km": 625.9313016475162,
        "timestamp": "2025-12-15T20:48:53.542409+00:00",
        "meta_object_name": "CARBONITE 1 (CBNT-1)",
        "meta_object_id": "2015-032D",
        "meta_epoch": "2025-12-14T22:38:15.073728",
        "meta_mean_motion": 14.82761549,
        "meta_eccentricity": 0.00145209,
        "meta_inclination": 97.6405,
        "meta_ra_of_asc_node": 169.8901,
        "meta_arg_of_pericenter": 173.8269,
        "meta_mean_anomaly": 186.3126,
        "meta_ephemeris_type": 0,
        "meta_classification_type": "U",
        "meta_norad_cat_id": 40718,
        "meta_element_set_no": 999,
        "meta_rev_at_epoch": 56203,
        "meta_bstar": 0.0004410705,
        "meta_mean_motion_dot": 3.52e-05,
        "meta_mean_motion_ddot": 0,
        "tle_line1": "1 40718U 15032D   25348.94323002  .00003520  00000+0  44107-3 0  9994",
        "tle_line2": "2 40718  97.6405 169.8901 0014520 173.8269 186.3126 14.82761549562035"
      },
      "geometry": {
        "type": "Point",
        "coordinates": [
          -29.19343098715719,
          -68.53936791771581
        ]
      }
    },
    {
      "type": "Feature",
      "properties": {
        "norad_id": 40878,
        "name": "YAOGAN-27",
        "group": "resource",
        "lat": -52.920294488621664,
        "lon": 145.70312329491986,
        "alt_km": 1202.5857612828486,
        "timestamp": "2025-12-15T20:48:53.542419+00:00",
        "meta_object_name": "YAOGAN-27",
        "meta_object_id": "2015-040A",
        "meta_epoch": "2025-12-14T23:33:31.567104",
        "meta_mean_motion": 13.16058609,
        "meta_eccentricity": 0.00076298,
        "meta_inclination": 100.1013,
        "meta_ra_of_asc_node": 338.5003,
        "meta_arg_of_pericenter": 281.285,
        "meta_mean_anomaly": 78.7406,
        "meta_ephemeris_type": 0,
        "meta_classification_type": "U",
        "meta_norad_cat_id": 40878,
        "meta_element_set_no": 999,
        "meta_rev_at_epoch": 49343,
        "meta_bstar": -0.0010602999,
        "meta_mean_motion_dot": -4.45e-06,
        "meta_mean_motion_ddot": 0,
        "tle_line1": "1 40878U 15040A   25348.98161536 -.00000445  00000+0 -10603-2 0  9994",
        "tle_line2": "2 40878 100.1013 338.5003 0007629 281.2850  78.7406 13.16058609493431"
      },
      "geometry": {
        "type": "Point",
        "coordinates": [
          145.70312329491986,
          -52.920294488621664
        ]
      }
    }
  ]
}